[{"OBJECT_NAME":"STARLINK-34541","OBJECT_ID":"2025-147S","EPOCH":"2026-03-09T17:47:19.648896","MEAN_MOTION":15.30198764,"ECCENTRICITY":9.745e-5,"INCLINATION":53.16,"RA_OF_ASC_NODE":242.2231,"ARG_OF_PERICENTER":89.1397,"MEAN_ANOMALY":270.9715,"EPHEMERIS_TYPE":0,"CLASSIFICATION_TYPE":"U","NORAD_CAT_ID":64771,"ELEMENT_SET_NO":999,"REV_AT_EPOCH":3869,"BSTAR":0.00070071636,"MEAN_MOTION_DOT":0.0002045,"MEAN_MOTION_DDOT":0},{"OBJECT_NAME":"COSMOS 1975","OBJECT_ID":"1988-093A","EPOCH":"2026-03-09T14:15:08.474112","MEAN_MOTION":15.28069249,"ECCENTRICITY":0.0012117,"INCLINATION":82.5181,"RA_OF_ASC_NODE":117.7814,"ARG_OF_PERICENTER":163.8427,"MEAN_ANOMALY":196.3201,"EPHEMERIS_TYPE":0,"CLASSIFICATION_TYPE":"U","NORAD_CAT_ID":19573,"ELEMENT_SET_NO":999,"REV_AT_EPOCH":1939,"BSTAR":0.0002787,"MEAN_MOTION_DOT":7.676e-5,"MEAN_MOTION_DDOT":0}]
